MALLIGYONG-1            
1 58400U 23179A   24152.60918740  .00008692  00000+0  37424-3 0  9995
2 58400  97.4060  39.7282 0007904 330.5036  29.5754 15.22815357 29200
